[{"OBJECT_NAME":"ONEWEB-0615","OBJECT_ID":"2022-166AL","EPOCH":"2025-08-04T07:27:47.828736","MEAN_MOTION":13.21827152,"ECCENTRICITY":0.0002003,"INCLINATION":87.927,"RA_OF_ASC_NODE":307.2108,"ARG_OF_PERICENTER":97.5561,"MEAN_ANOMALY":262.58,"EPHEMERIS_TYPE":0,"CLASSIFICATION_TYPE":"U","NORAD_CAT_ID":54676,"ELEMENT_SET_NO":999,"REV_AT_EPOCH":12958,"BSTAR":-0.00010596,"MEAN_MOTION_DOT":-3.1e-7,"MEAN_MOTION_DDOT":0},{"OBJECT_NAME":"ONEWEB-0655","OBJECT_ID":"2022-166AM","EPOCH":"2025-08-04T06:49:11.904384","MEAN_MOTION":13.21824318,"ECCENTRICITY":0.0002398,"INCLINATION":87.9266,"RA_OF_ASC_NODE":307.2213,"ARG_OF_PERICENTER":98.1079,"MEAN_ANOMALY":262.0327,"EPHEMERIS_TYPE":0,"CLASSIFICATION_TYPE":"U","NORAD_CAT_ID":54677,"ELEMENT_SET_NO":999,"REV_AT_EPOCH":12957,"BSTAR":8.2831e-5,"MEAN_MOTION_DOT":4.7e-7,"MEAN_MOTION_DDOT":0},{"OBJECT_NAME":"ONEWEB-0659","OBJECT_ID":"2022-166AN","EPOCH":"2025-08-04T12:41:11.217984","MEAN_MOTION":13.21826025,"ECCENTRICITY":0.0001851,"INCLINATION":87.9269,"RA_OF_ASC_NODE":307.1736,"ARG_OF_PERICENTER":98.6004,"MEAN_ANOMALY":261.5339,"EPHEMERIS_TYPE":0,"CLASSIFICATION_TYPE":"U","NORAD_CAT_ID":54678,"ELEMENT_SET_NO":999,"REV_AT_EPOCH":12969,"BSTAR":0.00018392,"MEAN_MOTION_DOT":8.9e-7,"MEAN_MOTION_DDOT":0},{"OBJECT_NAME":"ONEWEB-0685","OBJECT_ID":"2022-166AP","EPOCH":"2025-08-04T07:16:27.903936","MEAN_MOTION":13.21825738,"ECCENTRICITY":0.0002182,"INCLINATION":87.927,"RA_OF_ASC_NODE":307.2138,"ARG_OF_PERICENTER":105.752,"MEAN_ANOMALY":254.3855,"EPHEMERIS_TYPE":0,"CLASSIFICATION_TYPE":"U","NORAD_CAT_ID":54679,"ELEMENT_SET_NO":999,"REV_AT_EPOCH":12955,"BSTAR":-2.1836e-5,"MEAN_MOTION_DOT":4.0e-8,"MEAN_MOTION_DDOT":0},{"OBJECT_NAME":"ONEWEB-0712","OBJECT_ID":"2022-166AQ","EPOCH":"2025-08-04T05:29:18.065184","MEAN_MOTION":13.16594172,"ECCENTRICITY":0.0002571,"INCLINATION":87.9048,"RA_OF_ASC_NODE":291.9422,"ARG_OF_PERICENTER":92.394,"MEAN_ANOMALY":267.7486,"EPHEMERIS_TYPE":0,"CLASSIFICATION_TYPE":"U","NORAD_CAT_ID":54680,"ELEMENT_SET_NO":999,"REV_AT_EPOCH":13035,"BSTAR":-0.00059533,"MEAN_MOTION_DOT":-2.15e-6,"MEAN_MOTION_DDOT":0},{"OBJECT_NAME":"ONEWEB-0714","OBJECT_ID":"2022-166AR","EPOCH":"2025-08-04T12:52:32.400768","MEAN_MOTION":13.21826842,"ECCENTRICITY":0.0002205,"INCLINATION":87.9272,"RA_OF_ASC_NODE":307.1607,"ARG_OF_PERICENTER":102.1958,"MEAN_ANOMALY":257.9423,"EPHEMERIS_TYPE":0,"CLASSIFICATION_TYPE":"U","NORAD_CAT_ID":54681,"ELEMENT_SET_NO":999,"REV_AT_EPOCH":12970,"BSTAR":9.2417e-6,"MEAN_MOTION_DOT":1.7e-7,"MEAN_MOTION_DDOT":0},{"OBJECT_NAME":"ONEWEB-0532","OBJECT_ID":"2023-004A","EPOCH":"2025-08-04T09:06:29.578464","MEAN_MOTION":13.17650139,"ECCENTRICITY":0.0001476,"INCLINATION":87.9037,"RA_OF_ASC_NODE":68.9084,"ARG_OF_PERICENTER":96.493,"MEAN_ANOMALY":263.6369,"EPHEMERIS_TYPE":0,"CLASSIFICATION_TYPE":"U","NORAD_CAT_ID":55140,"ELEMENT_SET_NO":999,"REV_AT_EPOCH":12586,"BSTAR":9.4841e-5,"MEAN_MOTION_DOT":5.0e-7,"MEAN_MOTION_DDOT":0},{"OBJECT_NAME":"ONEWEB-0533","OBJECT_ID":"2023-004B","EPOCH":"2025-08-04T12:56:56.050368","MEAN_MOTION":13.12443509,"ECCENTRICITY":0.0001942,"INCLINATION":87.8856,"RA_OF_ASC_NODE":53.6068,"ARG_OF_PERICENTER":91.1297,"MEAN_ANOMALY":269.0054,"EPHEMERIS_TYPE":0,"CLASSIFICATION_TYPE":"U","NORAD_CAT_ID":55141,"ELEMENT_SET_NO":999,"REV_AT_EPOCH":12652,"BSTAR":0.0013235,"MEAN_MOTION_DOT":4.89e-6,"MEAN_MOTION_DDOT":0},{"OBJECT_NAME":"ONEWEB-0541","OBJECT_ID":"2023-004C","EPOCH":"2025-08-04T09:33:16.284960","MEAN_MOTION":13.11416989,"ECCENTRICITY":0.0001735,"INCLINATION":87.8804,"RA_OF_ASC_NODE":84.1864,"ARG_OF_PERICENTER":80.8923,"MEAN_ANOMALY":279.2401,"EPHEMERIS_TYPE":0,"CLASSIFICATION_TYPE":"U","NORAD_CAT_ID":55142,"ELEMENT_SET_NO":999,"REV_AT_EPOCH":12442,"BSTAR":0.0013706,"MEAN_MOTION_DOT":4.98e-6,"MEAN_MOTION_DDOT":0},{"OBJECT_NAME":"ONEWEB-0543","OBJECT_ID":"2023-004D","EPOCH":"2025-08-04T10:55:37.100064","MEAN_MOTION":13.18684911,"ECCENTRICITY":0.0002108,"INCLINATION":87.9109,"RA_OF_ASC_NODE":38.4295,"ARG_OF_PERICENTER":87.3189,"MEAN_ANOMALY":272.8185,"EPHEMERIS_TYPE":0,"CLASSIFICATION_TYPE":"U","NORAD_CAT_ID":55143,"ELEMENT_SET_NO":999,"REV_AT_EPOCH":12795,"BSTAR":0.00019102,"MEAN_MOTION_DOT":8.8e-7,"MEAN_MOTION_DDOT":0},{"OBJECT_NAME":"ONEWEB-0544","OBJECT_ID":"2023-004E","EPOCH":"2025-08-04T12:35:22.660512","MEAN_MOTION":13.1868515,"ECCENTRICITY":0.000184,"INCLINATION":87.9115,"RA_OF_ASC_NODE":38.4058,"ARG_OF_PERICENTER":83.4551,"MEAN_ANOMALY":276.679,"EPHEMERIS_TYPE":0,"CLASSIFICATION_TYPE":"U","NORAD_CAT_ID":55144,"ELEMENT_SET_NO":999,"REV_AT_EPOCH":12796,"BSTAR":0.00017052,"MEAN_MOTION_DOT":8.0e-7,"MEAN_MOTION_DDOT":0},{"OBJECT_NAME":"ONEWEB-0560","OBJECT_ID":"2023-004F","EPOCH":"2025-08-04T12:25:53.105664","MEAN_MOTION":13.18685076,"ECCENTRICITY":0.0001841,"INCLINATION":87.9119,"RA_OF_ASC_NODE":38.383,"ARG_OF_PERICENTER":80.9978,"MEAN_ANOMALY":279.1362,"EPHEMERIS_TYPE":0,"CLASSIFICATION_TYPE":"U","NORAD_CAT_ID":55145,"ELEMENT_SET_NO":999,"REV_AT_EPOCH":12797,"BSTAR":0.00017896,"MEAN_MOTION_DOT":8.3e-7,"MEAN_MOTION_DDOT":0},{"OBJECT_NAME":"ONEWEB-0565","OBJECT_ID":"2023-004G","EPOCH":"2025-08-04T12:16:23.258784","MEAN_MOTION":13.1868696,"ECCENTRICITY":0.0001302,"INCLINATION":87.9113,"RA_OF_ASC_NODE":38.4413,"ARG_OF_PERICENTER":80.6729,"MEAN_ANOMALY":279.455,"EPHEMERIS_TYPE":0,"CLASSIFICATION_TYPE":"U","NORAD_CAT_ID":55146,"ELEMENT_SET_NO":999,"REV_AT_EPOCH":12796,"BSTAR":0.00012911,"MEAN_MOTION_DOT":6.4e-7,"MEAN_MOTION_DDOT":0},{"OBJECT_NAME":"ONEWEB-0567","OBJECT_ID":"2023-004H","EPOCH":"2025-08-04T12:06:53.394624","MEAN_MOTION":13.18687083,"ECCENTRICITY":0.0001558,"INCLINATION":87.9119,"RA_OF_ASC_NODE":38.4004,"ARG_OF_PERICENTER":79.1552,"MEAN_ANOMALY":280.9755,"EPHEMERIS_TYPE":0,"CLASSIFICATION_TYPE":"U","NORAD_CAT_ID":55147,"ELEMENT_SET_NO":999,"REV_AT_EPOCH":12796,"BSTAR":9.7002e-5,"MEAN_MOTION_DOT":5.1e-7,"MEAN_MOTION_DDOT":0},{"OBJECT_NAME":"ONEWEB-0569","OBJECT_ID":"2023-004J","EPOCH":"2025-08-04T11:45:54.603648","MEAN_MOTION":13.13469878,"ECCENTRICITY":0.0001758,"INCLINATION":87.8974,"RA_OF_ASC_NODE":23.1168,"ARG_OF_PERICENTER":60.1036,"MEAN_ANOMALY":300.0267,"EPHEMERIS_TYPE":0,"CLASSIFICATION_TYPE":"U","NORAD_CAT_ID":55148,"ELEMENT_SET_NO":999,"REV_AT_EPOCH":12860,"BSTAR":-0.00069789,"MEAN_MOTION_DOT":-2.42e-6,"MEAN_MOTION_DDOT":0},{"OBJECT_NAME":"ONEWEB-0570","OBJECT_ID":"2023-004K","EPOCH":"2025-08-04T11:52:37.283808","MEAN_MOTION":13.18684386,"ECCENTRICITY":0.0001306,"INCLINATION":87.9115,"RA_OF_ASC_NODE":38.4046,"ARG_OF_PERICENTER":102.669,"MEAN_ANOMALY":257.4588,"EPHEMERIS_TYPE":0,"CLASSIFICATION_TYPE":"U","NORAD_CAT_ID":55149,"ELEMENT_SET_NO":999,"REV_AT_EPOCH":12795,"BSTAR":0.00017269,"MEAN_MOTION_DOT":8.1e-7,"MEAN_MOTION_DDOT":0},{"OBJECT_NAME":"ONEWEB-0571","OBJECT_ID":"2023-004L","EPOCH":"2025-08-04T11:43:07.392864","MEAN_MOTION":13.18686735,"ECCENTRICITY":0.0001205,"INCLINATION":87.911,"RA_OF_ASC_NODE":38.412,"ARG_OF_PERICENTER":45.2954,"MEAN_ANOMALY":314.8276,"EPHEMERIS_TYPE":0,"CLASSIFICATION_TYPE":"U","NORAD_CAT_ID":55150,"ELEMENT_SET_NO":999,"REV_AT_EPOCH":12796,"BSTAR":1.1747e-5,"MEAN_MOTION_DOT":1.8e-7,"MEAN_MOTION_DDOT":0}]
