ONEWEB-0615             
1 54676U 22166AL  25216.31097024 -.00000031  00000+0 -10596-3 0  9996
2 54676  87.9270 307.2108 0002003  97.5561 262.5800 13.21827152129582
ONEWEB-0655             
1 54677U 22166AM  25216.28416556  .00000047  00000+0  82831-4 0  9995
2 54677  87.9266 307.2213 0002398  98.1079 262.0327 13.21824318129572
ONEWEB-0659             
1 54678U 22166AN  25216.52860206  .00000089  00000+0  18392-3 0  9994
2 54678  87.9269 307.1736 0001851  98.6004 261.5339 13.21826025129698
ONEWEB-0685             
1 54679U 22166AP  25216.30310074  .00000004  00000+0 -21836-4 0  9990
2 54679  87.9270 307.2138 0002182 105.7520 254.3855 13.21825738129557
ONEWEB-0712             
1 54680U 22166AQ  25216.22868131 -.00000215  00000+0 -59533-3 0  9994
2 54680  87.9048 291.9422 0002571  92.3940 267.7486 13.16594172130353
ONEWEB-0714             
1 54681U 22166AR  25216.53648612  .00000017  00000+0  92417-5 0  9997
2 54681  87.9272 307.1607 0002205 102.1958 257.9423 13.21826842129708
ONEWEB-0532             
1 55140U 23004A   25216.37950901  .00000050  00000+0  94841-4 0  9998
2 55140  87.9037  68.9084 0001476  96.4930 263.6369 13.17650139125868
ONEWEB-0533             
1 55141U 23004B   25216.53953762  .00000489  00000+0  13235-2 0  9997
2 55141  87.8856  53.6068 0001942  91.1297 269.0054 13.12443509126527
ONEWEB-0541             
1 55142U 23004C   25216.39810515  .00000498  00000+0  13706-2 0  9993
2 55142  87.8804  84.1864 0001735  80.8923 279.2401 13.11416989124422
ONEWEB-0543             
1 55143U 23004D   25216.45529051  .00000088  00000+0  19102-3 0  9995
2 55143  87.9109  38.4295 0002108  87.3189 272.8185 13.18684911127951
ONEWEB-0544             
1 55144U 23004E   25216.52456783  .00000080  00000+0  17052-3 0  9999
2 55144  87.9115  38.4058 0001840  83.4551 276.6790 13.18685150127969
ONEWEB-0560             
1 55145U 23004F   25216.51797576  .00000083  00000+0  17896-3 0  9996
2 55145  87.9119  38.3830 0001841  80.9978 279.1362 13.18685076127978
ONEWEB-0565             
1 55146U 23004G   25216.51138031  .00000064  00000+0  12911-3 0  9994
2 55146  87.9113  38.4413 0001302  80.6729 279.4550 13.18686960127968
ONEWEB-0567             
1 55147U 23004H   25216.50478466  .00000051  00000+0  97002-4 0  9994
2 55147  87.9119  38.4004 0001558  79.1552 280.9755 13.18687083127962
ONEWEB-0569             
1 55148U 23004J   25216.49021532 -.00000242  00000+0 -69789-3 0  9995
2 55148  87.8974  23.1168 0001758  60.1036 300.0267 13.13469878128601
ONEWEB-0570             
1 55149U 23004K   25216.49487597  .00000081  00000+0  17269-3 0  9998
2 55149  87.9115  38.4046 0001306 102.6690 257.4588 13.18684386127957
ONEWEB-0571             
1 55150U 23004L   25216.48828001  .00000018  00000+0  11747-4 0  9994
2 55150  87.9110  38.4120 0001205  45.2954 314.8276 13.18686735127963
